GLOBALSTAR M063         
1 26081U 00008A   25057.92789476 -.00000057  00000+0  38163-3 0  9992
2 26081  51.9970  41.9532 0004919 102.9742 279.7558 11.86166480144498
GLOBALSTAR M062         
1 26082U 00008B   25057.78286935 -.00000099  00000+0 -86135-5 0  9990
2 26082  51.9850  60.4454 0006810 234.9810 298.4292 12.43459699482881
GLOBALSTAR M060         
1 26083U 00008C   25058.13841414  .00000090  00000+0  17980-2 0  9998
2 26083  52.0050   3.8401 0002907 264.0603 109.9181 12.17656894139133
GLOBALSTAR M064         
1 26084U 00008D   25057.97302062 -.00000066  00000+0  24618-3 0  9992
2 26084  52.0023 141.9637 0001835 182.9075 177.1747 11.88530138154107
GLOBALSTAR M065         
1 31571U 07020A   25058.16116440  .00000034  00000+0  77202-3 0  9996
2 31571  51.9877 201.1513 0010919  67.1992 103.7552 12.61994414819825
GLOBALSTAR M069         
1 31573U 07020C   25056.61032856 -.00000097  00000+0  12952-4 0  9996
2 31573  51.9939 170.1397 0001604 103.9844 269.4264 12.47308329820300
GLOBALSTAR M072         
1 31574U 07020D   25058.06858355 -.00000047  00000+0  50647-3 0  9995
2 31574  52.0152 285.1099 0001904 101.9549  52.3057 11.91776959818671
GLOBALSTAR M071         
1 31576U 07020F   25057.87764499 -.00000152  00000+0 -60454-3 0  9995
2 31576  52.0050 179.9293 0000791 170.7146 338.1738 12.18249315481494
